{
  "type": "FeatureCollection",
  "features": [
    {
      "type": "Feature",
      "properties": {
        "norad_id": 29887,
        "name": "FENGYUN 1C DEB",
        "group": "fengyun-1c-debris",
        "lat": -38.79893065045841,
        "lon": 74.48027738196784,
        "alt_km": 628.6111028519072,
        "timestamp": "2025-12-11T18:59:46.345272+00:00",
        "meta_object_name": "FENGYUN 1C DEB",
        "meta_object_id": "1999-025GH",
        "meta_epoch": "2025-12-10T17:04:13.457568",
        "meta_mean_motion": 14.33693981,
        "meta_eccentricity": 0.02871492,
        "meta_inclination": 98.7179,
        "meta_ra_of_asc_node": 66.3041,
        "meta_arg_of_pericenter": 5.1335,
        "meta_mean_anomaly": 145.4797,
        "meta_ephemeris_type": 0,
        "meta_classification_type": "U",
        "meta_norad_cat_id": 29887,
        "meta_element_set_no": 999,
        "meta_rev_at_epoch": 97945,
        "meta_bstar": 0.0007688038,
        "meta_mean_motion_dot": 3.334e-05,
        "meta_mean_motion_ddot": 0,
        "tle_line1": "1 29887U 99025GH  25344.71126687  .00003334  00000+0  76880-3 0  9999",
        "tle_line2": "2 29887  98.7179  66.3041 0287149   5.1335 145.4797 14.33693981979453"
      },
      "geometry": {
        "type": "Point",
        "coordinates": [
          74.48027738196784,
          -38.79893065045841
        ]
      }
    },
    {
      "type": "Feature",
      "properties": {
        "norad_id": 29888,
        "name": "FENGYUN 1C DEB",
        "group": "fengyun-1c-debris",
        "lat": 80.63312692321816,
        "lon": 77.45666241311527,
        "alt_km": 726.3304408085132,
        "timestamp": "2025-12-11T18:59:46.345282+00:00",
        "meta_object_name": "FENGYUN 1C DEB",
        "meta_object_id": "1999-025GJ",
        "meta_epoch": "2025-12-11T06:44:49.567200",
        "meta_mean_motion": 14.19852112,
        "meta_eccentricity": 0.02750744,
        "meta_inclination": 99.1918,
        "meta_ra_of_asc_node": 177.9321,
        "meta_arg_of_pericenter": 29.4995,
        "meta_mean_anomaly": 332.1388,
        "meta_ephemeris_type": 0,
        "meta_classification_type": "U",
        "meta_norad_cat_id": 29888,
        "meta_element_set_no": 999,
        "meta_rev_at_epoch": 97483,
        "meta_bstar": 0.0005251049,
        "meta_mean_motion_dot": 1.575e-05,
        "meta_mean_motion_ddot": 0,
        "tle_line1": "1 29888U 99025GJ  25345.28112925  .00001575  00000+0  52510-3 0  9992",
        "tle_line2": "2 29888  99.1918 177.9321 0275074  29.4995 332.1388 14.19852112974830"
      },
      "geometry": {
        "type": "Point",
        "coordinates": [
          77.45666241311527,
          80.63312692321816
        ]
      }
    },
    {
      "type": "Feature",
      "properties": {
        "norad_id": 29889,
        "name": "FENGYUN 1C DEB",
        "group": "fengyun-1c-debris",
        "lat": -13.947306754394196,
        "lon": -79.24912850629308,
        "alt_km": 950.4111961744848,
        "timestamp": "2025-12-11T18:59:46.345292+00:00",
        "meta_object_name": "FENGYUN 1C DEB",
        "meta_object_id": "1999-025GK",
        "meta_epoch": "2025-12-11T06:29:05.603136",
        "meta_mean_motion": 14.13509277,
        "meta_eccentricity": 0.01545228,
        "meta_inclination": 99.4767,
        "meta_ra_of_asc_node": 102.5762,
        "meta_arg_of_pericenter": 43.1549,
        "meta_mean_anomaly": 18.7643,
        "meta_ephemeris_type": 0,
        "meta_classification_type": "U",
        "meta_norad_cat_id": 29889,
        "meta_element_set_no": 999,
        "meta_rev_at_epoch": 97298,
        "meta_bstar": 0.00043411582,
        "meta_mean_motion_dot": 8.67e-06,
        "meta_mean_motion_ddot": 0,
        "tle_line1": "1 29889U 99025GK  25345.27020374  .00000867  00000+0  43412-3 0  9992",
        "tle_line2": "2 29889  99.4767 102.5762 0154522  43.1549  18.7643 14.13509277972981"
      },
      "geometry": {
        "type": "Point",
        "coordinates": [
          -79.24912850629308,
          -13.947306754394196
        ]
      }
    },
    {
      "type": "Feature",
      "properties": {
        "norad_id": 29890,
        "name": "FENGYUN 1C DEB",
        "group": "fengyun-1c-debris",
        "lat": 23.56974597574767,
        "lon": 103.06797574503626,
        "alt_km": 807.9837562747553,
        "timestamp": "2025-12-11T18:59:46.345302+00:00",
        "meta_object_name": "FENGYUN 1C DEB",
        "meta_object_id": "1999-025GL",
        "meta_epoch": "2025-12-11T07:04:19.265088",
        "meta_mean_motion": 14.23029871,
        "meta_eccentricity": 0.00147999,
        "meta_inclination": 99.4675,
        "meta_ra_of_asc_node": 106.7089,
        "meta_arg_of_pericenter": 77.5736,
        "meta_mean_anomaly": 282.7095,
        "meta_ephemeris_type": 0,
        "meta_classification_type": "U",
        "meta_norad_cat_id": 29890,
        "meta_element_set_no": 999,
        "meta_rev_at_epoch": 97430,
        "meta_bstar": 0.0014537314,
        "meta_mean_motion_dot": 3.231e-05,
        "meta_mean_motion_ddot": 0,
        "tle_line1": "1 29890U 99025GL  25345.29466742  .00003231  00000+0  14537-2 0  9992",
        "tle_line2": "2 29890  99.4675 106.7089 0014799  77.5736 282.7095 14.23029871974309"
      },
      "geometry": {
        "type": "Point",
        "coordinates": [
          103.06797574503626,
          23.56974597574767
        ]
      }
    },
    {
      "type": "Feature",
      "properties": {
        "norad_id": 29891,
        "name": "FENGYUN 1C DEB",
        "group": "fengyun-1c-debris",
        "lat": 27.916216538958057,
        "lon": -16.70633556338829,
        "alt_km": 918.1865790353513,
        "timestamp": "2025-12-11T18:59:46.345314+00:00",
        "meta_object_name": "FENGYUN 1C DEB",
        "meta_object_id": "1999-025GM",
        "meta_epoch": "2025-12-10T12:34:49.806912",
        "meta_mean_motion": 13.9999327,
        "meta_eccentricity": 0.00613503,
        "meta_inclination": 98.7262,
        "meta_ra_of_asc_node": 346.7524,
        "meta_arg_of_pericenter": 266.5163,
        "meta_mean_anomaly": 217.5371,
        "meta_ephemeris_type": 0,
        "meta_classification_type": "U",
        "meta_norad_cat_id": 29891,
        "meta_element_set_no": 999,
        "meta_rev_at_epoch": 96457,
        "meta_bstar": 0.00057546897,
        "meta_mean_motion_dot": 8.18e-06,
        "meta_mean_motion_ddot": 0,
        "tle_line1": "1 29891U 99025GM  25344.52418758  .00000818  00000+0  57547-3 0  9999",
        "tle_line2": "2 29891  98.7262 346.7524 0061350 266.5163 217.5371 13.99993270964579"
      },
      "geometry": {
        "type": "Point",
        "coordinates": [
          -16.70633556338829,
          27.916216538958057
        ]
      }
    },
    {
      "type": "Feature",
      "properties": {
        "norad_id": 29892,
        "name": "FENGYUN 1C DEB",
        "group": "fengyun-1c-debris",
        "lat": -30.39134835630304,
        "lon": 138.72286219884492,
        "alt_km": 670.2720470746317,
        "timestamp": "2025-12-11T18:59:46.345325+00:00",
        "meta_object_name": "FENGYUN 1C DEB",
        "meta_object_id": "1999-025GN",
        "meta_epoch": "2025-12-11T06:17:16.081152",
        "meta_mean_motion": 14.32138011,
        "meta_eccentricity": 0.01912252,
        "meta_inclination": 99.1814,
        "meta_ra_of_asc_node": 132.7193,
        "meta_arg_of_pericenter": 301.6053,
        "meta_mean_anomaly": 178.1033,
        "meta_ephemeris_type": 0,
        "meta_classification_type": "U",
        "meta_norad_cat_id": 29892,
        "meta_element_set_no": 999,
        "meta_rev_at_epoch": 96628,
        "meta_bstar": 0.0061214541,
        "meta_mean_motion_dot": 0.0002016,
        "meta_mean_motion_ddot": 0,
        "tle_line1": "1 29892U 99025GN  25345.26199168  .00020160  00000+0  61215-2 0  9991",
        "tle_line2": "2 29892  99.1814 132.7193 0191225 301.6053 178.1033 14.32138011966286"
      },
      "geometry": {
        "type": "Point",
        "coordinates": [
          138.72286219884492,
          -30.39134835630304
        ]
      }
    },
    {
      "type": "Feature",
      "properties": {
        "norad_id": 29893,
        "name": "FENGYUN 1C DEB",
        "group": "fengyun-1c-debris",
        "lat": -80.88964516359997,
        "lon": 151.75035893608955,
        "alt_km": 1029.6066188100667,
        "timestamp": "2025-12-11T18:59:46.345335+00:00",
        "meta_object_name": "FENGYUN 1C DEB",
        "meta_object_id": "1999-025GP",
        "meta_epoch": "2025-12-11T05:38:43.572192",
        "meta_mean_motion": 13.79460137,
        "meta_eccentricity": 0.01736247,
        "meta_inclination": 98.5536,
        "meta_ra_of_asc_node": 81.4438,
        "meta_arg_of_pericenter": 157.4743,
        "meta_mean_anomaly": 232.8621,
        "meta_ephemeris_type": 0,
        "meta_classification_type": "U",
        "meta_norad_cat_id": 29893,
        "meta_element_set_no": 999,
        "meta_rev_at_epoch": 95119,
        "meta_bstar": 0.00032157206,
        "meta_mean_motion_dot": 3.33e-06,
        "meta_mean_motion_ddot": 0,
        "tle_line1": "1 29893U 99025GP  25345.23522653  .00000333  00000+0  32157-3 0  9992",
        "tle_line2": "2 29893  98.5536  81.4438 0173624 157.4743 232.8621 13.79460137951191"
      },
      "geometry": {
        "type": "Point",
        "coordinates": [
          151.75035893608955,
          -80.88964516359997
        ]
      }
    }
  ]
}